{
    "links": {
        "self": "http://www.neowsapp.com/rest/v1/neo/3799788?api_key=iIulBulltgU6a56xZRHN4H3l9WmuAYTsLGpBGhQ2"
    },
    "id": "3799788",
    "neo_reference_id": "3799788",
    "name": "(2018 EF)",
    "designation": "2018 EF",
    "nasa_jpl_url": "http://ssd.jpl.nasa.gov/sbdb.cgi?sstr=3799788",
    "absolute_magnitude_h": 24.9,
    "estimated_diameter": {
        "kilometers": {
            "estimated_diameter_min": 0.0278326768,
            "estimated_diameter_max": 0.0622357573
        },
        "meters": {
            "estimated_diameter_min": 27.8326768072,
            "estimated_diameter_max": 62.2357573367
        },
        "miles": {
            "estimated_diameter_min": 0.0172944182,
            "estimated_diameter_max": 0.0386714948
        },
        "feet": {
            "estimated_diameter_min": 91.3145593761,
            "estimated_diameter_max": 204.1855621004
        }
    },
    "is_potentially_hazardous_asteroid": false,
    "close_approach_data": [
        {
            "close_approach_date": "2018-03-12",
            "close_approach_date_full": "2018-Mar-12 06:38",
            "epoch_date_close_approach": 1520836680000,
            "relative_velocity": {
                "kilometers_per_second": "7.983480997",
                "kilometers_per_hour": "28740.5315892517",
                "miles_per_hour": "17858.2486422214"
            },
            "miss_distance": {
                "astronomical": "0.0746886083",
                "lunar": "29.0538686287",
                "kilometers": "11173256.714944321",
                "miles": "6942739.7835447898"
            },
            "orbiting_body": "Earth"
        }
    ],
    "orbital_data": {
        "orbit_id": "5",
        "orbit_determination_date": "2018-03-21 09:28:12",
        "first_observation_date": "2018-03-06",
        "last_observation_date": "2018-03-18",
        "data_arc_in_days": 12,
        "observations_used": 34,
        "orbit_uncertainty": "7",
        "minimum_orbit_intersection": ".0698314",
        "jupiter_tisserand_invariant": "4.039",
        "epoch_osculation": "2459000.5",
        "eccentricity": ".4023039400734266",
        "semi_major_axis": "1.732811884075977",
        "inclination": "11.36046924523447",
        "ascending_node_longitude": "158.5698493047337",
        "orbital_period": "833.1545176677221",
        "perihelion_distance": "1.035694835706154",
        "perihelion_argument": "29.74809475061292",
        "aphelion_distance": "2.4299289324458",
        "perihelion_time": "2459039.475574519186",
        "mean_anomaly": "343.158938072874",
        "mean_motion": ".4320927179363563",
        "equinox": "J2000",
        "orbit_class": {
            "orbit_class_type": "AMO",
            "orbit_class_description": "Near-Earth asteroid orbits similar to that of 1221 Amor",
            "orbit_class_range": "1.017 AU < q (perihelion) < 1.3 AU"
        }
    },
    "is_sentry_object": false
}